LEMUR-2-VALHALLA        
1 58900U 24022B   26186.07449198  .00026723  00000+0  66372-3 0  9993
2 58900  97.4088  36.2858 0010176  57.3327 302.8899 15.40253389135024
LEMUR-2-CAEL            
1 58903U 24022E   26186.06899327  .00029939  00000+0  71123-3 0  9990
2 58903  97.4072  37.2478 0008170  43.5743 316.6148 15.41599611135098
LEMUR-2-JOHNNYTRUONG    
1 59146U 24043BA  26185.39291360  .00056885  00000+0  65452-3 0  9999
2 59146  97.5391 338.1783 0004555 124.7433 235.4254 15.61818849130726
LEMUR-2-TOMATOKECHUP    
1 60471U 24149D   26186.21554149  .00018596  00000+0  52481-3 0  9993
2 60471  97.3792 268.3123 0002842 140.6819 219.4632 15.36432698104938
LEMUR-2-STELLA          
1 60533U 24149BT  26186.01648889  .00021169  00000+0  12267-2 0  9992
2 60533  97.6731 268.5536 0001304 102.2938 257.8438 15.12216531103198
LEMUR-2-MARHISYAM       
1 60536U 24149BW  26185.73865476  .00018366  00000+0  10829-2 0  9993
2 60536  97.6875 268.7409 0003054  86.6655 273.4924 15.11619799103136
LEMUR-2-AHMED-ASRAR     
1 60576U 24149DN  26186.21857125  .00021275  00000+0  12012-2 0  9992
2 60576  97.6999 271.3871 0000339 289.1354  70.9839 15.13151703103299
LEMUR-2-LLOYD           
1 60577U 24149DP  26185.74256076  .00018685  00000+0  11642-2 0  9997
2 60577  97.6742 266.8843 0005220  96.6367 263.5456 15.09601183103048
LEMUR-2-SQUIRRELCOMM    
1 60578U 24149DQ  26186.18010105  .00011441  00000+0  75981-3 0  9998
2 60578  97.6700 267.0364 0005001   3.1897 356.9362 15.07368905103113
LEMUR-2-SIERRINI        
1 60579U 24149DR  26186.03050089  .00020994  00000+0  12454-2 0  9996
2 60579  97.6839 268.7054 0006532 116.5122 243.6778 15.11356042103152
LEMUR-2-WILSON          
1 62694U 25009CP  26186.16396382  .00004183  00000+0  38521-3 0  9991
2 62694  97.7019 264.3134 0002728  10.9228 349.2051 14.95249439 80042
LEMUR-2-STAR-FOX        
1 62696U 25009CR  26186.20585590  .00013346  00000+0  10014-2 0  9996
2 62696  97.6931 267.6866 0003659  74.4899 285.6730 15.02759310 80261
LEMUR-2-ARIANNA         
1 62699U 25009CU  26186.13773632  .00013778  00000+0  10336-2 0  9993
2 62699  97.6871 267.3793 0004010  79.3835 280.7841 15.02755968 80252
LEMUR-2-ALISIA          
1 62706U 25009DB  26186.17881244  .00015623  00000+0  11618-2 0  9990
2 62706  97.6947 268.2261 0003293 161.8369 198.2974 15.03062515102868
LEMUR-2-ROUNDTRIPPER    
1 62711U 25009DG  26186.19100505  .00016840  00000+0  12174-2 0  9992
2 62711  97.7221 268.8463 0004579  87.8506 272.3244 15.04109103 80335
LEMUR-2-MYNAMEISJEFF    
1 62712U 25009DH  26186.18943619  .00016572  00000+0  11985-2 0  9994
2 62712  97.7271 269.2366 0003623 121.7558 238.4021 15.04101211 80330
